JILIN-1 GAOFEN 3A       
1 44312U 19032C   26068.74542089  .00016264  00000+0  55381-3 0  9993
2 44312  44.9746 183.2861 0002618 111.2900 248.8263 15.30271310372592
STARLINK-2355           
1 47895U 21021AM  26068.82025818  .00003508  00000+0  13043-3 0  9994
2 47895  53.1596 267.5423 0000885  86.7609 273.3493 15.30220581276249
